name;address;province;city;pinAddress;phone;latitude;longitude;teamCode
1. AGRES ID JAKARTA;JL. GUNUNG SAHARI RAYA 1  RUKO BLOK A NO. 8  ANCOL, KEC. PADEMANGAN  JAKARTA UTARA 14420;DKI Jakarta;Jakarta Utara;Mangga Dua Square, Ruko Jl. Gn. Sahari No.1 Blok A. 8, Ancol, Kec. Pademangan, Jkt Utara, Daerah Khusus Ibukota Jakarta 14420;0812-9700-9800;-6.135350805;106.8313541;JKT01-JKT11
2. AGRESKOMPUTER.COM;JL. GUNUNG SAHARI RAYA 1  RUKO BLOK A NO. 1  ANCOL, KEC. PADEMANGAN  JAKARTA UTARA 14420;DKI Jakarta;Jakarta Utara;Mangga Dua Square, Ruko Jl. Gn. Sahari No.1 Blok A. 8, Ancol, Kec. Pademangan, Jkt Utara, Daerah Khusus Ibukota Jakarta 14420;0821-8080-9090;-6.135350805;106.8313541;JKT05-RAK01
3. AGRESKOMPUTER.COM;JL. MANGGA DUA RAYA  LANTAI LOBBY UTAMA NO. 1  MANGGA DUA SELATAN, KEC. SAWAH BESAR  JAKARTA PUSAT 10730;DKI Jakarta;Jakarta Pusat;Jl. Mangga Dua Raya, RT.17/RW.1'1. Mangga Dua Sel., Kecamatan Sawah Besar, Kota Jakarta Pusat, Daerah Khusus Ibukota Jakarta 10730;To Be Announced;-6.138936889;106.828707;JKT05-RAK02
4. AGRES ID;JL. PURNAWARMAN 13-15  LANTAI 1 BLOK AC 09  BABAKAN CIAMIS, KEC. SUMUR BANDUNG  JAWA BARAT 40117;Jawa Barat;Bandung;Jl. Purnawarman 13-15 Gedung Bec Lama Lt Lg Blok A 02, Kota Bandung, Jawa Barat 40117;0811-1914-1687;-6.907571723;107.6088219;BDG05-RBA02
5. AGRES ID X INTEL;JL. PURNAWARMAN 13-15  LANTAI 1 BLOK D 01  BABAKAN CIAMIS, KEC. SUMUR BANDUNG  JAWA BARAT 40117;Jawa Barat;Bandung;Jl. Purnawarman 13-15 Gedung Bec Lama Lt Lg Blok A 02, Kota Bandung, Jawa Barat 40118;0811-1997-2604;-6.907571723;107.6088219;BDG05-RBA03
6. AGRES ID;JL. PURNAWARMAN 13-15  LANTAI 1 BLOK S 05-06  BABAKAN CIAMIS, KEC. SUMUR BANDUNG  JAWA BARAT 40117;Jawa Barat;Bandung;Jl. Purnawarman 13-15 Gedung Bec Lama Lt Lg Blok A 02, Kota Bandung, Jawa Barat 40119;0811-9003-4901;-6.907571723;107.6088219;BDG05-RBA04
7. AGRES ID;JL. PURNAWARMAN 13-15  LANTAI 1 BLOK T 09-10   BABAKAN CIAMIS, KEC. SUMUR BANDUNG  JAWA BARAT 40117;Jawa Barat;Bandung;Jl. Purnawarman 13-15 Gedung Bec Lama Lt Lg Blok A 02, Kota Bandung, Jawa Barat 40120;0811-1902-9221;-6.907571723;107.6088219;BDG05-RBA01
8. AGRES ID;JL. PURNAWARMAN 13-15  LANTAI 1 BLOK T 25   BABAKAN CIAMIS, KEC. SUMUR BANDUNG  JAWA BARAT 40117;Jawa Barat;Bandung;Jl. Purnawarman 13-15 Gedung Bec Lama Lt Lg Blok A 02, Kota Bandung, Jawa Barat 40121;0811-9002-9688;-6.907571723;107.6088219;BDG05-RBA05
9. AGRES ID;JL. KH. NOER ALI NO. 177  LANTAI 1 BLOK A10 NO. 11A  KAYURINGIN JAYA, KEC. BEKASI SELATAN  JAWA BARAT 17144;Jawa Barat;Bekasi;Jl. KH. Noer Ali No.177, RT.001/RW.005, Kayuringin Jaya, Kec. Bekasi Sel., Kota Bks, Jawa Barat 17144;0811-1914-6067;-6.246386909;106.9914997;BKS05-RBK01
10. GAMER ID;JL. KH. NOER ALI NO. 177  LANTAI 1 BLOK A5 NO. 8  KAYURINGIN JAYA, KEC. BEKASI SELATAN  JAWA BARAT 17144;Jawa Barat;Bekasi;Jl. KH. Noer Ali No.177, RT.001/RW.005, Kayuringin Jaya, Kec. Bekasi Sel., Kota Bks, Jawa Barat 17144;0811-9791-0644;-6.246386909;106.9914997;BKS05-RBK02
11. GAMER ID;JL. KH. NOER ALI NO. 177  LANTAI 1 BLOK A1 NO. 8  KAYURINGIN JAYA, KEC. BEKASI SELATAN  JAWA BARAT 17144;Jawa Barat;Bekasi;Jl. KH. Noer Ali No.177, RT.001/RW.005, Kayuringin Jaya, Kec. Bekasi Sel., Kota Bks, Jawa Barat 17144;0811-9791-0646;-6.246386909;106.9914997;BKS05-RBK03
12. GAMER ID;JL. KH. NOER ALI NO. 177  LANTAI 1 BLOK A7 NO. 3  KAYURINGIN JAYA, KEC. BEKASI SELATAN  JAWA BARAT 17144;Jawa Barat;Bekasi;Jl. KH. Noer Ali No.177, RT.001/RW.005, Kayuringin Jaya, Kec. Bekasi Sel., Kota Bks, Jawa Barat 17144;0811-1902-9536;-6.246386909;106.9914997;BKS05-RBK04
13. AGRES ID;JL. AHMAD YANI NO. 1  LANTAI 1 NO. 39  MARGA JAYA, KEC. BEKASI SELATAN  JAWA BARAT 17144;Jawa Barat;Bekasi;Jl. Ahmad Yani No.'1. RT.004/RW.00'1. Marga Jaya, Kec. Bekasi Sel., Kota Bks, Jawa Barat 17141;0811-8112-6767;-6.249329202;106.9925167;BKS05-RMB01
14. AGRES ID;JL. AHMAD YANI NO. 1  LANTAI 1 NO. C16  MARGA JAYA, KEC. BEKASI SELATAN  JAWA BARAT 17144;Jawa Barat;Bekasi;Jl. Ahmad Yani No.'1. RT.004/RW.00'1. Marga Jaya, Kec. Bekasi Sel., Kota Bks, Jawa Barat 17141;0811-8112-6768;-6.249329202;106.9925167;BKS05-RMB02
15. AGRES ID X INTEL;JL. RAYA PONDOK GEDE BLOK K7  LANTAI DASAR BLOK B NO. 10  JATIWARINGIN, KEC. PONDOK GEDE  JAWA BARAT 17414;Jawa Barat;Bekasi;Jl. Raya Pd. Gede;0811-1907-9850;-6.283827978;106.9114497;BKS05-RPG01
16. AGRES ID & FONE;JL. RAYA PAJAJARAN NO 23A  BARANANGSIANG, KEC. BOGOR BOGOR;Jawa Barat;Bogor;Jl. Raya Pajajaran No.2'3. RT.05/RW.0'1. Sukasari, Kec. Bogor Tim., Kota Bogor, Jawa Barat 16142;0811-9008-9064;-6.618572969;106.8159463;BGR05-RBP01
17. AGRES ID X INTEL;JL. IR. H. JUANDA NO. 68  2F D11 - 001  PALEDANG, KEC. BOGOR TENGAH  JAWA BARAT 16122;Jawa Barat;Bogor;Jl. Ir. H. Juanda No.68, RT.01/RW.1'3. Paledang, Kecamatan Bogor Tengah, Kota Bogor, Jawa Barat 16122;0811-9003-4899;-6.604541965;106.7958855;BGR05-RBT01
18. AGRES ID;JL. TEGAR BERIMAN NO. 1  LANTAI LG NO. 17A  PAKANSARI, KEC. CIBINONG  JAWA BARAT 16914;Jawa Barat;Bogor;Jl. Tegar Beriman No.'1. Pakansari, Kec. Cibinong, Kabupaten Bogor, Jawa Barat 16914;0811-1902-9223;-6.482568328;106.8426834;BGR05-RCM01
19. GAMER ID LEGION;JL. TEGAR BERIMAN NO. 1  LANTAI LG NO. 21A  PAKANSARI, KEC. CIBINONG  JAWA BARAT 16914;Jawa Barat;Bogor;Jl. Tegar Beriman No.'1. Pakansari, Kec. Cibinong, Kabupaten Bogor, Jawa Barat 16914;0811-1905-1202;-6.482568328;106.8426834;BGR05-RCM02
20. AGRES ID X INTEL;JL. A. YANI NO. 1  LANTAI SEMI DASAR BLOK H NO. 6 & 7  BANTARJATI, KEC. BOGOR UTARA  JAWA BARAT 16153;Jawa Barat;Bogor;Jl. A. Yani No.'1. Bantarjati, Kec. Kota Bogor Utara, Kota Bogor, Jawa Barat 16153;0811-1997-2605;-6.569010301;106.8082014;BGR05-RJD02
21. AGRES ID;JL. AHMAD YANI NO. 6  SUKMAJAYA, KEC. JOMBANG  BANTEN 42426;Banten;Cilegon;Jl. Ahmad Yani Link Priuk No.6;0812-9700-9700;-6.022476015;106.0654996;CLG05-RCL01
22. AGRES ID & FONE;JL. TENTARA PELAJAR NO. 16  KEJAKSAN, KEC. KEJAKSAN  JAWA BARAT 45131;Jawa Barat;Cirebon;Jl. Tentara Pelajar No.16;0811-8114-2697;-6.715321477;108.5562914;CBN05-RCN01
23. AGRES ID X INTEL;JL. ALTERNATIF CIBUBUR NO. 230A  LANTAI 2 NO. F2-29  HARJAMUKTI, KEC. CIMANGGIS  JAWA BARAT 16454;Jawa Barat;Depok;Jl. Alternatif Cibubur No.230 A;0811-1908-7530;-6.375387792;106.901924;DPK05-RCB01
24. AGRES ID;JL. MARGONDA RAYA KM. 4  LANTAI 1 NO. B012 & B015  DEPOK, KEC. PANCORAN MAS  JAWA BARAT 16431;Jawa Barat;Depok;Jl. Margonda, Depok, Kec. Pancoran Mas, Kota Depok, Jawa Barat 16431;0811-9006-9106;-6.391526597;106.8248466;DPK05-RCD01
25. AGRES ID;JL. MARGONDA RAYA NO. 1  LANTAI 2 BLOK SC2 NO 1-2  PONDOK CINA, KEC. BEJI  JAWA BARAT 16424;Jawa Barat;Depok;Jl. Margonda Raya No.'1. Pondok Cina, Kecamatan Beji, Kota Depok, Jawa Barat 16424;0811-1902-9537;-6.372386791;106.8316154;DPK05-RDT01
26. AGRES ID;JL. MARGONDA RAYA NO. 1  LANTAI 2 BLOK SS31 NO 6-7  PONDOK CINA, KEC. BEJI  JAWA BARAT 16424;Jawa Barat;Depok;Jl. Margonda Raya No.'1. Pondok Cina, Kecamatan Beji, Kota Depok, Jawa Barat 16424;0811-9791-0649;-6.372386791;106.8316154;DPK05-RDT02
27. GAMER ID;JL. MARGONDA RAYA NO. 1  LANTAI 2 BLOK SS32 NO 5-6  PONDOK CINA, KEC. BEJI  JAWA BARAT 16424;Jawa Barat;Depok;Jl. Margonda Raya No.'1. Pondok Cina, Kecamatan Beji, Kota Depok, Jawa Barat 16424;0811-1905-1204;-6.372386791;106.8316154;DPK05-RDT03
28. GAMER ID;JL. MARGONDA RAYA NO. 1  LANTAI 2 BLOK SS31 NO 1-2  PONDOK CINA, KEC. BEJI  JAWA BARAT 16424;Jawa Barat;Depok;Jl. Margonda Raya No.'1. Pondok Cina, Kecamatan Beji, Kota Depok, Jawa Barat 16424;0811-1905-1200;-6.372386791;106.8316154;DPK05-RDT04
29. ASUS LENOVO;JL. MARGONDA RAYA NO. 1  LANTAI 2 BLOK SS32 NO 1-2  PONDOK CINA, KEC. BEJI  JAWA BARAT 16424;Jawa Barat;Depok;Jl. Margonda Raya No.'1. Pondok Cina, Kecamatan Beji, Kota Depok, Jawa Barat 16424;0811-1914-6064;-6.372386791;106.8316154;DPK05-RDT05
30. AGRES ID X INTEL;JL. MARGONDA RAYA NO. 1  LANTAI 2 BlOK SS17 NO 5-6  PONDOK CINA, KEC. BEJI  JAWA BARAT 16424;Jawa Barat;Depok;Jl. Margonda Raya No.'1. Pondok Cina, Kecamatan Beji, Kota Depok, Jawa Barat 16424;0811-1053-8924;-6.372386791;106.8316154;DPK05-RDT06
31. AGRES ID;JL. MARGONDA NO. 56  LANTAI 3 BLOK A NO. 162-164  DEPOK, KEC. PANCORAN MAS  JAWA BARAT 16431;Jawa Barat;Depok;Jl. Margonda No.56, Depok, Kec. Pancoran Mas, Kota Depok, Jawa Barat 16431;0811-1914-9698;-6.39231504;106.8235181;DPK05-RID01
32. AGRES ID;JL. MARGONDA NO. 56  LANTAI 3 BLOK A NO. 62-63  DEPOK, KEC. PANCORAN MAS  JAWA BARAT 16431;Jawa Barat;Depok;Jl. Margonda No.56, Depok, Kec. Pancoran Mas, Kota Depok, Jawa Barat 16432;0811-1918-2729;-6.39231504;106.8235181;DPK05-RID02
33. AGRES ID;JL. MARGONDA NO. 56  LANTAI 3 BLOK A NO. 25-26   DEPOK, KEC. PANCORAN MAS  JAWA BARAT 16431;Jawa Barat;Depok;Jl. Margonda No.56, Depok, Kec. Pancoran Mas, Kota Depok, Jawa Barat 16433;0811-1916-4469;-6.39231504;106.8235181;DPK05-RID03
34. AGRES ID;JL. MARGONDA NO. 56  LANTAI 2 ATRIUM 1  DEPOK, KEC. PANCORAN MAS  JAWA BARAT 16431;Jawa Barat;Depok;Jl. Margonda No.56, Depok, Kec. Pancoran Mas, Kota Depok, Jawa Barat 16434;0811-1997-2603;-6.39231504;106.8235181;DPK05-RID04
35. AGRES ID;JL. MARGONDA NO. 56  LANTAI 3 ATRIUM 1  DEPOK, KEC. PANCORAN MAS  JAWA BARAT 16431;Jawa Barat;Depok;Jl. Margonda No.56, Depok, Kec. Pancoran Mas, Kota Depok, Jawa Barat 16435;0811-9001-7992;-6.39231504;106.8235181;DPK05-RID05
36. AGRES ID X ASUS;JL. PROF. DR. SATRIO  LANTAI 3 NO. 46  KARET KUNINGAN, KEC. SETIABUDI  JAKARTA SELATAN 12920;DKI Jakarta;Jakarta Selatan;Kuningan, Karet Kuningan, Setiabudi, South Jakarta City, Jakarta;0811-1320-6911;-6.223792837;106.826788;JKT05-RAM01
37. AGRES ID X ASUS;JL. PROF. DR. SATRIO  LANTAI 3 NO. 38  KARET KUNINGAN, KEC. SETIABUDI  JAKARTA SELATAN 12920;DKI Jakarta;Jakarta Selatan;Kuningan, Karet Kuningan, Setiabudi, South Jakarta City, Jakarta;0811-1320-6912;-6.223792837;106.826788;JKT05-RAM02
38. AGRES ID X ASUS;JL. PROF. DR. SATRIO  LANTAI 3 NO. 5  KARET KUNINGAN, KEC. SETIABUDI  JAKARTA SELATAN 12920;DKI Jakarta;Jakarta Selatan;Kuningan, Karet Kuningan, Setiabudi, South Jakarta City, Jakarta;0811-1320-6916;-6.223792837;106.826788;JKT05-RAM03
39. AGRES ID X ASUS LENOVO;JL. PROF. DR. SATRIO  LANTAI 2 NO. 40A  KARET KUNINGAN, KEC. SETIABUDI  JAKARTA SELATAN 12920;DKI Jakarta;Jakarta Selatan;Kuningan, Karet Kuningan, Setiabudi, South Jakarta City, Jakarta;0811-1320-6914;-6.223792837;106.826788;JKT05-RAM04
40. GAMER;JL. PROF. DR. SATRIO  LANTAI 3 NO. 61  KARET KUNINGAN, KEC. SETIABUDI  JAKARTA SELATAN 12920;DKI Jakarta;Jakarta Selatan;Kuningan, Karet Kuningan, Setiabudi, South Jakarta City, Jakarta;0811-1320-6915;-6.223792837;106.826788;JKT05-RAM05
41. AGRES ID;JL. PROF. DR. SATRIO  LANTAI 3 NO. 58  KARET KUNINGAN, KEC. SETIABUDI  JAKARTA SELATAN 12920;DKI Jakarta;Jakarta Selatan;Kuningan, Karet Kuningan, Setiabudi, South Jakarta City, Jakarta;0811-1923-8068;-6.223792837;106.826788;JKT05-RAM06
42. GAMER;JL. PROF. DR. SATRIO  LANTAI 1 NO. 68  KARET KUNINGAN, KEC. SETIABUDI  JAKARTA SELATAN 12920;DKI Jakarta;Jakarta Selatan;Kuningan, Karet Kuningan, Setiabudi, South Jakarta City, Jakarta;0811-1320-6917;-6.223792837;106.826788;JKT05-RAM07
43. GAMER;JL. PROF. DR. SATRIO  LANTAI 2 NO. 27  KARET KUNINGAN, KEC. SETIABUDI  JAKARTA SELATAN 12920;DKI Jakarta;Jakarta Selatan;Kuningan, Karet Kuningan, Setiabudi, South Jakarta City, Jakarta;0811-1320-6918;-6.223792837;106.826788;JKT05-RAM08
44. AGRES ID;JL. PROF. DR. SATRIO  LANTAI 1 NO. 63  KARET KUNINGAN, KEC. SETIABUDI  JAKARTA SELATAN 12920;DKI Jakarta;Jakarta Selatan;Kuningan, Karet Kuningan, Setiabudi, South Jakarta City, Jakarta;0811-1320-6919;-6.223792837;106.826788;JKT05-RAM09
45. AGRES ID X INTEL;JL. PROF. DR. SATRIO  LANTAI 3 NO. 8  KARET KUNINGAN, KEC. SETIABUDI  JAKARTA SELATAN 12920;DKI Jakarta;Jakarta Selatan;Kuningan, Karet Kuningan, Setiabudi, South Jakarta City, Jakarta;0811-1905-1201;-6.223792837;106.826788;JKT05-RAM10
46. AGRES ID X AMD;JL. PROF. DR. SATRIO  LANTAI 3 NO. 32  KARET KUNINGAN, KEC. SETIABUDI  JAKARTA SELATAN 12920;DKI Jakarta;Jakarta Selatan;Kuningan, Karet Kuningan, Setiabudi, South Jakarta City, Jakarta;0811-1320-6913;-6.223792837;106.826788;JKT05-RAM11
47. GAMER LEGION;JL. PROF. DR. SATRIO  LANTAI 2 NO. 61-62  KARET KUNINGAN, KEC. SETIABUDI  JAKARTA SELATAN 12920;DKI Jakarta;Jakarta Selatan;Kuningan, Karet Kuningan, Setiabudi, South Jakarta City, Jakarta;0811-1902-9218;-6.223792837;106.826788;JKT05-RAM12
48. AGRES ID;JL. PROF. DR. SATRIO  LANTAI 2 NO. 64  KARET KUNINGAN, KEC. SETIABUDI  JAKARTA SELATAN 12920;DKI Jakarta;Jakarta Selatan;Kuningan, Karet Kuningan, Setiabudi, South Jakarta City, Jakarta;0811-1905-1197;-6.223792837;106.826788;JKT05-RAM13
49. AGRES ID;JL. PROF. DR. SATRIO  LANTAI 1 NO. 9  KARET KUNINGAN, KEC. SETIABUDI  JAKARTA SELATAN 12920;DKI Jakarta;Jakarta Selatan;Kuningan, Karet Kuningan, Setiabudi, South Jakarta City, Jakarta;0811-1914-6065;-6.223792837;106.826788;JKT05-RAM14
50. AGRES ID X INTEL ASUS;JL. PROF. DR. SATRIO  LANTAI 2 NO. 19  KARET KUNINGAN, KEC. SETIABUDI  JAKARTA SELATAN 12920;DKI Jakarta;Jakarta Selatan;Kuningan, Karet Kuningan, Setiabudi, South Jakarta City, Jakarta;0811-1908-7531;-6.223792837;106.826788;JKT05-RAM15
51. AGRES ID X ASUS LENOVO;JL. PROF. DR. SATRIO  LANTAI 3 NO. 65  KARET KUNINGAN, KEC. SETIABUDI  JAKARTA SELATAN 12920;DKI Jakarta;Jakarta Selatan;Kuningan, Karet Kuningan, Setiabudi, South Jakarta City, Jakarta;0811-1927-0382;-6.223792837;106.826788;JKT05-RAM16
52. GAMER;JL. PROF. DR. SATRIO  LANTAI 2 NO. 31  KARET KUNINGAN, KEC. SETIABUDI  JAKARTA SELATAN 12920;DKI Jakarta;Jakarta Selatan;Kuningan, Karet Kuningan, Setiabudi, South Jakarta City, Jakarta;0811-1053-8927;-6.223792837;106.826788;JKT05-RAM17
53. GAMER INTEL;JL. PROF. DR. SATRIO  LANTAI 2 NO. 24  KARET KUNINGAN, KEC. SETIABUDI  JAKARTA SELATAN 12920;DKI Jakarta;Jakarta Selatan;Kuningan, Karet Kuningan, Setiabudi, South Jakarta City, Jakarta;0811-1232-1131;-6.223792837;106.826788;JKT05-RAM18
54. AGRES ID;JL. PROF. DR. SATRIO  LANTAI 3 NO. 68  KARET KUNINGAN, KEC. SETIABUDI  JAKARTA SELATAN 12920;DKI Jakarta;Jakarta Selatan;Kuningan, Karet Kuningan, Setiabudi, South Jakarta City, Jakarta;0811-1053-8926;-6.223792837;106.826788;JKT05-RAM19
55. AGRES ID & FONE;JL. RAYA CONDET NO 2 BATU AMPAR, KEC. KRAMAT JATI JAKARTA TIMUR;DKI Jakarta;Jakarta Timur;Jl. Raya Condet No.2, RT.13/RW.4. Kel. Batu Ampar, Kota, Kec. Kramat jati, Kota Jakarta Timur, Daerah Khusus Ibukota Jakarta 13520;0811-1971-7435;-6.273071224;106.8571512;JKT05-RCO01
56. GAMER ID ASUS;JL. MAYJEN SUTOYO NO. 76  LANTAI 3A NO. 510C  CILILITAN, KEC. KRAMAT JATI  JAKARTA TIMUR 13640;DKI Jakarta;Jakarta Timur;Pusat Grosir Cililitan, Jl. Mayjen Sutoyo No.76, RT.4/RW.1'1. Cililitan, Kec. Kramat jati, Kota Jakarta Timur, Daerah Khusus Ibukota Jakarta 13640;08111-3206-910;-6.262171261;106.8652093;JKT05-RGC01
57. AGRES ID;JL. MAYJEN SUTOYO NO. 76  LANTAI 3A NO. 562-563  CILILITAN, KEC. KRAMAT JATI  JAKARTA TIMUR 13640;DKI Jakarta;Jakarta Timur;Pusat Grosir Cililitan, Jl. Mayjen Sutoyo No.76, RT.4/RW.1'1. Cililitan, Kec. Kramat jati, Kota Jakarta Timur, Daerah Khusus Ibukota Jakarta 13641;0811-1320-6920;-6.262171261;106.8652093;JKT05-RGC02
58. AGRES ID;JL. MAYJEN SUTOYO NO. 76  LANTAI 3A NO. 573C  CILILITAN, KEC. KRAMAT JATI  JAKARTA TIMUR 13640;DKI Jakarta;Jakarta Timur;Pusat Grosir Cililitan, Jl. Mayjen Sutoyo No.76, RT.4/RW.1'1. Cililitan, Kec. Kramat jati, Kota Jakarta Timur, Daerah Khusus Ibukota Jakarta 13642;0811-1902-9220;-6.262171261;106.8652093;JKT05-RGC03
59. GAMER ID LEGION;JL. MAYJEN SUTOYO NO. 76  LANTAI 3A NO. 511C  CILILITAN, KEC. KRAMAT JATI  JAKARTA TIMUR 13640;DKI Jakarta;Jakarta Timur;Pusat Grosir Cililitan, Jl. Mayjen Sutoyo No.76, RT.4/RW.1'1. Cililitan, Kec. Kramat jati, Kota Jakarta Timur, Daerah Khusus Ibukota Jakarta 13643;0811-1905-1203;-6.262171261;106.8652093;JKT05-RGC04
60. AGRES ID;JL. MAYJEN SUTOYO NO. 76  LANTAI 3A NO. 703-705  CILILITAN, KEC. KRAMAT JATI  JAKARTA TIMUR 13640;DKI Jakarta;Jakarta Timur;Pusat Grosir Cililitan, Jl. Mayjen Sutoyo No.76, RT.4/RW.1'1. Cililitan, Kec. Kramat jati, Kota Jakarta Timur, Daerah Khusus Ibukota Jakarta 13644;0811-1254-4421;-6.262171261;106.8652093;JKT05-RGC05
61. GAMER ID INTEL;JL. MAYJEN SUTOYO NO. 76  LANTAI 3A NO. 606-608  CILILITAN, KEC. KRAMAT JATI  JAKARTA TIMUR 13640;DKI Jakarta;Jakarta Timur;Pusat Grosir Cililitan, Jl. Mayjen Sutoyo No.76, RT.4/RW.1'1. Cililitan, Kec. Kramat jati, Kota Jakarta Timur, Daerah Khusus Ibukota Jakarta 13645;0811-1914-6062;-6.262171261;106.8652093;JKT05-RGC06
62. AGRES ID X INTEL;JL. MAYJEN SUTOYO NO. 76  LANTAI 3A NO. 211-212  CILILITAN, KEC. KRAMAT JATI  JAKARTA TIMUR 13640;DKI Jakarta;Jakarta Timur;Pusat Grosir Cililitan, Jl. Mayjen Sutoyo No.76, RT.4/RW.1'1. Cililitan, Kec. Kramat jati, Kota Jakarta Timur, Daerah Khusus Ibukota Jakarta 13646;0811-1253-4071;-6.262171261;106.8652093;JKT05-RGC07
63. AGRES ID & FONE;JL. MAYJEN SUTOYO NO. 76  LANTAI 3A NO. 565C-568C  CILILITAN, KEC. KRAMAT JATI  JAKARTA TIMUR 13640;DKI Jakarta;Jakarta Timur;Pusat Grosir Cililitan, Jl. Mayjen Sutoyo No.76, RT.4/RW.1'1. Cililitan, Kec. Kramat jati, Kota Jakarta Timur, Daerah Khusus Ibukota Jakarta 13647;0811-1908-8852;-6.262171261;106.8652093;JKT05-RGC08
64. GAMER ID LENOVO;JL. MANGGA DUA RAYA  LANTAI DASAR LOBBY UTAMA BLOK LC01 A NO. 1  MANGGA DUA SELATAN, KEC. SAWAH BESAR  JAKARTA PUSAT 10730;DKI Jakarta;Jakarta Pusat;Jl. Mangga Dua Raya, RT.17/RW.1'1. Mangga Dua Sel., Kecamatan Sawah Besar, Kota Jakarta Pusat, Daerah Khusus Ibukota Jakarta 10730;0811-1320-6922;-6.138936889;106.828707;JKT05-RHC01
65. AGRES ID X LEGION;JL. MANGGA DUA RAYA  LANTAI DASAR LOBBY UTAMA BLOK LC01 A NO. 2  MANGGA DUA SELATAN, KEC. SAWAH BESAR  JAKARTA PUSAT 10730;DKI Jakarta;Jakarta Pusat;Jl. Mangga Dua Raya, RT.17/RW.1'1. Mangga Dua Sel., Kecamatan Sawah Besar, Kota Jakarta Pusat, Daerah Khusus Ibukota Jakarta 10731;0811-1320-6921;-6.138936889;106.828707;JKT05-RHC02
66. AGRES ID X INTEL;JL. MANGGA DUA RAYA  LANTAI DASAR LOBBY UTAMA BLOK LC01 A NO. 4  MANGGA DUA SELATAN, KEC. SAWAH BESAR  JAKARTA PUSAT 10730;DKI Jakarta;Jakarta Pusat;Jl. Mangga Dua Raya, RT.17/RW.1'1. Mangga Dua Sel., Kecamatan Sawah Besar, Kota Jakarta Pusat, Daerah Khusus Ibukota Jakarta 10732;0811-1320-6927;-6.138936889;106.828707;JKT05-RHC03
67. AGRES ID X JCC ACER ASUS;JL. MANGGA DUA RAYA  LANTAI 2 BLOK B NO. 7'1. 71A & 72  MANGGA DUA SELATAN, KEC. SAWAH BESAR  JAKARTA PUSAT 10730;DKI Jakarta;Jakarta Pusat;Jl. Mangga Dua Raya, RT.17/RW.1'1. Mangga Dua Sel., Kecamatan Sawah Besar, Kota Jakarta Pusat, Daerah Khusus Ibukota Jakarta 10733;0811-1053-8931;-6.138936889;106.828707;JKT05-RHC04
68. GAMER ID;JL. MANGGA DUA RAYA  LANTAI 1 BLOK B1 NO. 64  MANGGA DUA SELATAN, KEC. SAWAH BESAR  JAKARTA PUSAT 10730;DKI Jakarta;Jakarta Pusat;Jl. Mangga Dua Raya, RT.17/RW.1'1. Mangga Dua Sel., Kecamatan Sawah Besar, Kota Jakarta Pusat, Daerah Khusus Ibukota Jakarta 10734;0811-9791-0651;-6.138936889;106.828707;JKT05-RHC05
69. AGRES ID X INTEL;JL. MANGGA DUA RAYA  LANTAI DASAR BLOK B NO. 10-11  MANGGA DUA SELATAN, KEC. SAWAH BESAR  JAKARTA PUSAT 10730;DKI Jakarta;Jakarta Pusat;Jl. Mangga Dua Raya, RT.17/RW.1'1. Mangga Dua Sel., Kecamatan Sawah Besar, Kota Jakarta Pusat, Daerah Khusus Ibukota Jakarta 10735;0811-1918-2731;-6.138936889;106.828707;JKT05-RHC06
70. GAMER ID;JL. MANGGA DUA RAYA  LANTAI 2 BLOK B NO. 82  MANGGA DUA SELATAN, KEC. SAWAH BESAR  JAKARTA PUSAT 10730;DKI Jakarta;Jakarta Pusat;Jl. Mangga Dua Raya, RT.17/RW.1'1. Mangga Dua Sel., Kecamatan Sawah Besar, Kota Jakarta Pusat, Daerah Khusus Ibukota Jakarta 10736;0811-1320-6924;-6.138936889;106.828707;JKT05-RHC07
71. AGRES ID;JL. MANGGA DUA RAYA  LANTAI DASAR BLOK B NO. 67A  MANGGA DUA SELATAN, KEC. SAWAH BESAR  JAKARTA PUSAT 10730;DKI Jakarta;Jakarta Pusat;Jl. Mangga Dua Raya, RT.17/RW.1'1. Mangga Dua Sel., Kecamatan Sawah Besar, Kota Jakarta Pusat, Daerah Khusus Ibukota Jakarta 10737;0811-1320-6928;-6.138936889;106.828707;JKT05-RHC08
72. AGRES ID X AMD;JL. MANGGA DUA RAYA  LANTAI 2 BLOK B NO. 188  MANGGA DUA SELATAN, KEC. SAWAH BESAR  JAKARTA PUSAT 10730;DKI Jakarta;Jakarta Pusat;Jl. Mangga Dua Raya, RT.17/RW.1'1. Mangga Dua Sel., Kecamatan Sawah Besar, Kota Jakarta Pusat, Daerah Khusus Ibukota Jakarta 10738;0811-1320-6923;-6.138936889;106.828707;JKT05-RHC09
73. GAMER ID AMD;JL. MANGGA DUA RAYA  LANTAI DASAR BLOK B NO. 88  MANGGA DUA SELATAN, KEC. SAWAH BESAR  JAKARTA PUSAT 10730;DKI Jakarta;Jakarta Pusat;Jl. Mangga Dua Raya, RT.17/RW.1'1. Mangga Dua Sel., Kecamatan Sawah Besar, Kota Jakarta Pusat, Daerah Khusus Ibukota Jakarta 10739;0811-1905-1198;-6.138936889;106.828707;JKT05-RHC10
74. AGRES ID X INTEL;JL. MANGGA DUA RAYA  LANTAI DASAR BLOK A LC01  MANGGA DUA SELATAN, KEC. SAWAH BESAR  JAKARTA PUSAT 10730;DKI Jakarta;Jakarta Pusat;Jl. Mangga Dua Raya, RT.17/RW.1'1. Mangga Dua Sel., Kecamatan Sawah Besar, Kota Jakarta Pusat, Daerah Khusus Ibukota Jakarta 10740;0811-1998-4675;-6.138936889;106.828707;JKT05-RHC11
75. AGRES ID;JL. MANGGA DUA RAYA  LANTAI 1 BLOK B1 NO. 48  MANGGA DUA SELATAN, KEC. SAWAH BESAR  JAKARTA PUSAT 10730;DKI Jakarta;Jakarta Pusat;Jl. Mangga Dua Raya, RT.17/RW.1'1. Mangga Dua Sel., Kecamatan Sawah Besar, Kota Jakarta Pusat, Daerah Khusus Ibukota Jakarta 10741;0811-1320-6925;-6.138936889;106.828707;JKT05-RHC12
76. GAMER ID INTEL;JL. MANGGA DUA RAYA  LANTAI 1 BLOK B1 NO. 47  MANGGA DUA SELATAN, KEC. SAWAH BESAR  JAKARTA PUSAT 10730;DKI Jakarta;Jakarta Pusat;Jl. Mangga Dua Raya, RT.17/RW.1'1. Mangga Dua Sel., Kecamatan Sawah Besar, Kota Jakarta Pusat, Daerah Khusus Ibukota Jakarta 10742;0811-1320-6929;-6.138936889;106.828707;JKT05-RHC13
77. AGRES ID X LEGION;JL. MANGGA DUA RAYA  LANTAI 1 BLOK B NO. 86  MANGGA DUA SELATAN, KEC. SAWAH BESAR  JAKARTA PUSAT 10730;DKI Jakarta;Jakarta Pusat;Jl. Mangga Dua Raya, RT.17/RW.1'1. Mangga Dua Sel., Kecamatan Sawah Besar, Kota Jakarta Pusat, Daerah Khusus Ibukota Jakarta 10743;0811-1923-8066;-6.138936889;106.828707;JKT05-RHC14
78. AGRES ID X AMD;JL. MANGGA DUA RAYA  LANTAI DASAR LOBBY UTAMA BLOK LC01 A NO. 5  MANGGA DUA SELATAN, KEC. SAWAH BESAR  JAKARTA PUSAT 10730;DKI Jakarta;Jakarta Pusat;Jl. Mangga Dua Raya, RT.17/RW.1'1. Mangga Dua Sel., Kecamatan Sawah Besar, Kota Jakarta Pusat, Daerah Khusus Ibukota Jakarta 10744;0811-1902-9538;-6.138936889;106.828707;JKT05-RHC15
79. AGRES ID;JL. MANGGA DUA RAYA LANTAI 1 BLOK B NO M7-M8  MANGGA DUA SELATAN, KEC. SAWAH BESAR  JAKARTA PUSAT 10730;DKI Jakarta;Jakarta Pusat;Jl. Mangga Dua Raya, RT.17/RW.1'1. Mangga Dua Sel., Kecamatan Sawah Besar, Kota Jakarta Pusat, Daerah Khusus Ibukota Jakarta 10745;0811-1918-2731;-6.138936889;106.828707;JKT05-RHC16
80. AGRES ID X KENRICH ASUS;JL. MANGGA DUA RAYA  LANTAI 1 BLOK B NO. 84 & 97  MANGGA DUA SELATAN, KEC. SAWAH BESAR  JAKARTA PUSAT 10730;DKI Jakarta;Jakarta Pusat;Jl. Mangga Dua Raya, RT.17/RW.1'1. Mangga Dua Sel., Kecamatan Sawah Besar, Kota Jakarta Pusat, Daerah Khusus Ibukota Jakarta 10746;0811-1053-8929;-6.138936889;106.828707;JKT05-RHC17
81. AGRES ID X ASUS STORE;JL. MANGGA DUA RAYA  LANTAI DASAR LOBBY UTAMA BLOK LC01 A NO. 3  MANGGA DUA SELATAN, KEC. SAWAH BESAR  JAKARTA PUSAT 10730;DKI Jakarta;Jakarta Pusat;Jl. Mangga Dua Raya, RT.17/RW.1'1. Mangga Dua Sel., Kecamatan Sawah Besar, Kota Jakarta Pusat, Daerah Khusus Ibukota Jakarta 10747;0811-1320-6926;-6.138936889;106.828707;JKT05-RHC18
82. AGRES ID X JCC INTEL;JL. MANGGA DUA RAYA  RUKO HARCO MANGGA DUA BLOK M NO. 1  MANGGA DUA SELATAN, KEC. SAWAH BESAR  JAKARTA PUSAT 10730;DKI Jakarta;Jakarta Pusat;HARCO, Ruko No.1 BLOK M, Mangga Dua Sel., Kecamatan Sawah Besar, Kota Jakarta Pusat, Daerah Khusus Ibukota Jakarta 11730;0811-1053-8933;-6.13780614;106.8291127;JKT05-RHC20
83. AGRES ID;JL. LETJEN SUPRAPTO KAV. 1  LANTAI 4 ATRIUM TIMUR NO. 10-13  SUMUR BATU, KEC. KEMAYORAN  JAKARTA PUSAT 10640;DKI Jakarta;Jakarta Pusat;Jl. Letjen Suprapto.Kav. '1. RW No.8 Lantai 5, Kota Jakarta Pusat, Daerah Khusus Ibukota Jakarta 10640;0811-9003-4898;-6.164415646;106.877561;JKT05-RIC01
84. AGRES ID X INTEL;JL. LETJEN SUPRAPTO KAV. 1  LANTAI 4 BLOK K NO. 885 & 889  SUMUR BATU, KEC. KEMAYORAN  JAKARTA PUSAT 10640;DKI Jakarta;Jakarta Pusat;Jl. Letjen Suprapto.Kav. '1. RW No.8 Lantai 5, Kota Jakarta Pusat, Daerah Khusus Ibukota Jakarta 10640;0811-1053-8928;-6.164415646;106.877561;JKT05-RIC02
85. AGRES ID & FONE;JL. LETJEN SUPRAPTO KAV. 1  LANTAI 4 ATRIUM TIMUR NO. 16  SUMUR BATU, KEC. KEMAYORAN  JAKARTA PUSAT 10640;DKI Jakarta;Jakarta Pusat;Jl. Letjen Suprapto.Kav. '1. RW No.8 Lantai 5, Kota Jakarta Pusat, Daerah Khusus Ibukota Jakarta 10640;0811-9003-4897;-6.164415646;106.877561;JKT05-RIC03
86. AGRES ID & FONE;JL. LETJEN SUPRAPTO KAV. 1  VOID TIMUR LANTAI 4 BLOK K 937-938  SUMUR BATU, KEC. KEMAYORAN  JAKARTA PUSAT 10640;DKI Jakarta;Jakarta Pusat;Jl. Letjen Suprapto.Kav. '1. RW No.8 Lantai 5, Kota Jakarta Pusat, Daerah Khusus Ibukota Jakarta 10640;0811-8112-9625;-6.164415646;106.877561;JKT05-RIC04
87. AGRES ID X INTEL;JL. RS. FATMAWATI RAYA NO. 39  LANTAI DASAR ATRIUM A2 & A3  CIPETE UTARA, KEC. KEBAYORAN BARU  JAKARTA SELATAN 12150;DKI Jakarta;Jakarta Selatan;Jl. ITC Fatmawati Jl. RS. Fatmawati Raya No.39, RT.1/RW.5, Cipete Utara, Kec. Kby. Baru, Kota Jakarta Selatan, Daerah Khusus Ibukota Jakarta 12150;0811-1053-8933;-6.263788266;106.7983462;JKT05-RIF01
88. AGRES ID & FONE;JL. RS. FATMAWATI RAYA NO. 39  LANTAI DASAR ATRIUM C2 & C3  CIPETE UTARA, KEC. KEBAYORAN BARU  JAKARTA SELATAN 12150;DKI Jakarta;Jakarta Selatan;Jl. ITC Fatmawati Jl. RS. Fatmawati Raya No.39, RT.1/RW.5, Cipete Utara, Kec. Kby. Baru, Kota Jakarta Selatan, Daerah Khusus Ibukota Jakarta 12150;0811-1232-1138;-6.263788266;106.7983462;JKT05-RIF02
89. AGRES ID X ACER STORE;JL. BOULEVARD BARAT RAYA NO. 12  LANTAI 2 NO. 2F-C11C  KELAPA GADING BARAT, KEC. KELAPA GADING  JAKARTA UTARA 14240;DKI Jakarta;Jakarta Utara;Jl. Boulevard Bar. Raya No.12, RT.18/RW.19, Klp. Gading Bar., Kec. Klp. Gading, Jkt Utara, Daerah Khusus Ibukota Jakarta 14240;0811-1053-8924;-6.151236224;106.8919056;JKT05-RMI01
90. GAMER ID AMD;JL. MANGGA DUA RAYA NO. 1  LANTAI DASAR NO. 34  MANGGA DUA SELATAN, SAWAH BESAR  JAKARTA PUSAT 10730;DKI Jakarta;Jakarta Pusat;Jl. Mangga Dua Raya No.'1. Mangga Dua Sel., Kecamatan Sawah Besar, Kota Jakarta Pusat, Daerah Khusus Ibukota Jakarta 10730;0811-1232-1129;-6.136511559;106.823051;JKT05-RMM09
91. AGRES ID X AMD;JL. MANGGA DUA RAYA NO. 1  LANTAI 1 NO. 3A-3B  MANGGA DUA SELATAN, SAWAH BESAR  JAKARTA PUSAT 10730;DKI Jakarta;Jakarta Pusat;Jl. Mangga Dua Raya No.'1. Mangga Dua Sel., Kecamatan Sawah Besar, Kota Jakarta Pusat, Daerah Khusus Ibukota Jakarta 10731;0811-1232-1130;-6.136511559;106.823051;JKT05-RMM10
92. AGRES ID & FONE;JL. MANGGA DUA RAYA NO. 1  LANTAI 1 NO. 5A-B  MANGGA DUA SELATAN, SAWAH BESAR  JAKARTA PUSAT 10730;DKI Jakarta;Jakarta Pusat;Jl. Mangga Dua Raya No.'1. Mangga Dua Sel., Kecamatan Sawah Besar, Kota Jakarta Pusat, Daerah Khusus Ibukota Jakarta 10732;0811-9006-1386;-6.136511559;106.823051;JKT05-RMM11
93. AGRES ID;JL. MANGGA DUA RAYA NO. 1  LANTAI 3 NO. 3B   MANGGA DUA SELATAN, SAWAH BESAR  JAKARTA PUSAT 10730;DKI Jakarta;Jakarta Pusat;Jl. Mangga Dua Raya No.'1. Mangga Dua Sel., Kecamatan Sawah Besar, Kota Jakarta Pusat, Daerah Khusus Ibukota Jakarta 10733;0811-1232-1132;-6.136511559;106.823051;JKT05-RMM12
94. GAMER ID;JL. MANGGA DUA RAYA NO. 1  LANTAI 2 NO. 28A  MANGGA DUA SELATAN, SAWAH BESAR  JAKARTA PUSAT 10730;DKI Jakarta;Jakarta Pusat;Jl. Mangga Dua Raya No.'1. Mangga Dua Sel., Kecamatan Sawah Besar, Kota Jakarta Pusat, Daerah Khusus Ibukota Jakarta 10734;0811-9001-7993;-6.136511559;106.823051;JKT05-RMM01
95. AGRES ID;JL. MANGGA DUA RAYA NO. 1  LANTAI 2 NO. 2A  MANGGA DUA SELATAN, SAWAH BESAR  JAKARTA PUSAT 10730;DKI Jakarta;Jakarta Pusat;Jl. Mangga Dua Raya No.'1. Mangga Dua Sel., Kecamatan Sawah Besar, Kota Jakarta Pusat, Daerah Khusus Ibukota Jakarta 10735;0811-1232-1137;-6.136511559;106.823051;JKT05-RMM02
96. GAMER ID;JL. MANGGA DUA RAYA NO. 1  LANTAI 1 NO. 17B   MANGGA DUA SELATAN, SAWAH BESAR  JAKARTA PUSAT 10730;DKI Jakarta;Jakarta Pusat;Jl. Mangga Dua Raya No.'1. Mangga Dua Sel., Kecamatan Sawah Besar, Kota Jakarta Pusat, Daerah Khusus Ibukota Jakarta 10736;0811-1232-1136;-6.136511559;106.823051;JKT05-RMM03
97. AGRES ID X LEGION;JL. MANGGA DUA RAYA NO. 1  LANTAI 2 NO. 5A  MANGGA DUA SELATAN, SAWAH BESAR  JAKARTA PUSAT 10730;DKI Jakarta;Jakarta Pusat;Jl. Mangga Dua Raya No.'1. Mangga Dua Sel., Kecamatan Sawah Besar, Kota Jakarta Pusat, Daerah Khusus Ibukota Jakarta 10737;0811-1232-1139;-6.136511559;106.823051;JKT05-RMM07
98. AGRES ID X ROG;JL. MANGGA DUA RAYA NO. 1  LANTAI DASAR ATRIUM  MANGGA DUA SELATAN, SAWAH BESAR  JAKARTA PUSAT 10730;DKI Jakarta;Jakarta Pusat;Jl. Mangga Dua Raya No.'1. Mangga Dua Sel., Kecamatan Sawah Besar, Kota Jakarta Pusat, Daerah Khusus Ibukota Jakarta 10738;0811-1914-1686;-6.136511559;106.823051;JKT05-RMM06
99. AGRES ID X PREDATOR;JL. MANGGA DUA RAYA NO. 1  LANTAI DASAR ATRIUM  MANGGA DUA SELATAN, SAWAH BESAR  JAKARTA PUSAT 10730;DKI Jakarta;Jakarta Pusat;Jl. Mangga Dua Raya No.'1. Mangga Dua Sel., Kecamatan Sawah Besar, Kota Jakarta Pusat, Daerah Khusus Ibukota Jakarta 10739;0811-1914-6061;-6.136511559;106.823051;JKT05-RMM08
100. AGRES ID X LEGION;JL. MANGGA DUA RAYA NO. 1  LANTAI DASAR ATRIUM  MANGGA DUA SELATAN, SAWAH BESAR  JAKARTA PUSAT 10730;DKI Jakarta;Jakarta Pusat;Jl. Mangga Dua Raya No.'1. Mangga Dua Sel., Kecamatan Sawah Besar, Kota Jakarta Pusat, Daerah Khusus Ibukota Jakarta 10740;0811-1914-6066;-6.136511559;106.823051;JKT05-RMM15
101. AGRES ID X MSI;JL. MANGGA DUA RAYA NO. 1  LANTAI DASAR ATRIUM  MANGGA DUA SELATAN, SAWAH BESAR  JAKARTA PUSAT 10730;DKI Jakarta;Jakarta Pusat;Jl. Mangga Dua Raya No.'1. Mangga Dua Sel., Kecamatan Sawah Besar, Kota Jakarta Pusat, Daerah Khusus Ibukota Jakarta 10741;0811-1918-2728;-6.136511559;106.823051;JKT05-RMM13
102. AGRES ID;JL. MANGGA DUA RAYA NO. 1  LANTAI 2 NO. 16  MANGGA DUA SELATAN, SAWAH BESAR  JAKARTA PUSAT 10730;DKI Jakarta;Jakarta Pusat;Jl. Mangga Dua Raya No.'1. Mangga Dua Sel., Kecamatan Sawah Besar, Kota Jakarta Pusat, Daerah Khusus Ibukota Jakarta 10742;0811-1914-1690;-6.136511559;106.823051;JKT05-RMM05
103. GAMER ID ASUS;JL. MANGGA DUA RAYA NO. 1  LANTAI 2 NO. 44  MANGGA DUA SELATAN, SAWAH BESAR  JAKARTA PUSAT 10730;DKI Jakarta;Jakarta Pusat;Jl. Mangga Dua Raya No.'1. Mangga Dua Sel., Kecamatan Sawah Besar, Kota Jakarta Pusat, Daerah Khusus Ibukota Jakarta 10743;0811-1907-9853;-6.136511559;106.823051;JKT05-RMM14
104. AGRES ID X INTEL LENOVO;JL. MANGGA DUA RAYA NO. 1  LANTAI 2 NO. 6  MANGGA DUA SELATAN, SAWAH BESAR  JAKARTA PUSAT 10730;DKI Jakarta;Jakarta Pusat;Jl. Mangga Dua Raya No.'1. Mangga Dua Sel., Kecamatan Sawah Besar, Kota Jakarta Pusat, Daerah Khusus Ibukota Jakarta 10744;0811-1993-8109;-6.136511559;106.823051;JKT05-RMM16
105. AGRES ID;JL. MANGGA DUA RAYA NO. 1  LANTAI 2 NO. 46  MANGGA DUA SELATAN, SAWAH BESAR  JAKARTA PUSAT 10730;DKI Jakarta;Jakarta Pusat;Jl. Mangga Dua Raya No.'1. Mangga Dua Sel., Kecamatan Sawah Besar, Kota Jakarta Pusat, Daerah Khusus Ibukota Jakarta 10745;0811-1253-4381;-6.136511559;106.823051;JKT05-RMM04
106. AGRES ID;JL. MANGGA DUA RAYA NO. 1  LANTAI 2 NO. 5B  MANGGA DUA SELATAN, SAWAH BESAR  JAKARTA PUSAT 10730;DKI Jakarta;Jakarta Pusat;Jl. Mangga Dua Raya No.'1. Mangga Dua Sel., Kecamatan Sawah Besar, Kota Jakarta Pusat, Daerah Khusus Ibukota Jakarta 10746;To Be Announced;-6.136511559;106.823051;JKT05-RMM17
107. AGRES ID X INTEL;JL. PESANGGRAHAN NO. 28F  KEMBANGAN SELATAN, KEC. KEMBANGAN  JAKARTA BARAT 11610;DKI Jakarta;Jakarta Barat;Jl. Pesanggrahan No.28 F, RT.1/RW.6, Kembangan Sel., Kec. Kembangan, Kota Jakarta Barat, Daerah Khusus Ibukota Jakarta 11610;0811-1907-9852;-6.185279441;106.7541579;JKT05-RPP01
108. AGRES ID X INTEL;JL. R.A. KARTINI NO. 1  LANTAI 2 NO. 41B  LEBAK BULUS, KEC. CILANDAK  JAKARTA SELATAN 12440;DKI Jakarta;Jakarta Selatan;Jl. R.A. Kartini No.'1. RT.9/RW.7, Lb. Bulus, Kec. Cilandak, Kota Jakarta Selatan, Daerah Khusus Ibukota Jakarta 12440;0811-1918-2732;-6.289663895;106.7781836;JKT05-RPS01
109. AGRES ID X INTEL;JL. R.A. KARTINI NO. 1  LANTAI 2 NO. 57&73  LEBAK BULUS, KEC. CILANDAK  JAKARTA SELATAN 12440;DKI Jakarta;Jakarta Selatan;Jl. R.A. Kartini No.'1. RT.9/RW.7, Lb. Bulus, Kec. Cilandak, Kota Jakarta Selatan, Daerah Khusus Ibukota Jakarta 12440;0811-1998-3961;-6.289663895;106.7781836;JKT05-RPS02
110. GAMER ID;JL. R.A. KARTINI NO. 1  LANTAI 2 NO. 55  LEBAK BULUS, KEC. CILANDAK  JAKARTA SELATAN 12440;DKI Jakarta;Jakarta Selatan;Jl. R.A. Kartini No.'1. RT.9/RW.7, Lb. Bulus, Kec. Cilandak, Kota Jakarta Selatan, Daerah Khusus Ibukota Jakarta 12440;0811-1998-3962;-6.289663895;106.7781836;JKT05-RPS03
111. AGRES ID & FONE;JL. ARIF RAHMAN HAKIM NO. 11  NAGASARI, KEC. KARAWANG BARAT  JAWA BARAT 41312;DKI Jakarta;Jakarta Barat;Jl. Arif Rahman Hakim No.1'1. Nagasari, Kec. Karawang Bar., Karawang, Jawa Barat 41312;?081-1125-3438;-6.305790985;107.3006636;KWG05-RKW01
112. AGRES ID & FONE INTEL;JL. ARIF RAHMAN HAKIM NO. 8  NAGASARI, KEC. KARAWANG BARAT  JAWA BARAT 41312;DKI Jakarta;Jakarta Barat;Jl. Arif Rahman Hakim No.1'1. Nagasari, Kec. Karawang Bar., Karawang, Jawa Barat 41313;0811-1253-4382;-6.305790985;107.3006636;KWG05-RKW02
113. AGRES ID & FONE;JL. ARIF RAHMAN HAKIM NO. 12C  NAGASARI, KEC. KARAWANG BARAT  JAWA BARAT 41312;DKI Jakarta;Jakarta Barat;Jl. Arif Rahman Hakim No.1'1. Nagasari, Kec. Karawang Bar., Karawang, Jawa Barat 41314;0811-9002-9690;-6.305790985;107.3006636;KWG05-RKW03
114. AGRES ID & FONE;JL. VETERAN NO 73  RUKO TAMAN PEMBAHARUAN, PURWAKARTA;Jawa Barat;Purwakarta;RUKO TAMAN PEMBAHARUAN, Jl. Veteran No.7'3. Nagri Kaler, Kec. Purwakarta, Kabupaten Purwakarta, Jawa Barat 41115;0811-8114-2693;-6.534773886;107.4448699;PWK05-RPW01
115. AGRES ID & FONE INTEL;JL. JENDRAL AHMAD YANI NO 14  CIWAKTU, KEC. SERANG  BANTEN 42118;Banten;Serang;Jl. Ahmad Yani No.14, Cimuncang, Kec. Serang, Kota Serang, Banten 42117;0811-9003-4902;-6.118701042;106.1586175;SRG05-RSG01
116. AGRES ID & FONE;JL. JENDRAL AHMAD YANI NO 97A  SUMUR PECUNG, KEC. SERANG  BANTEN 42117;Banten;Serang;Jl. Jenderal Ahmad Yani Serang No.97A, Sumurpecung, Kec. Serang, Kota Serang, Banten 42117;0811-9004-7497;-6.119226357;106.1648489;SRG05-RSG02
117. AGRES ID & FONE;JL. RE MARTADINATA NO 84  KEBONJATI, KEC. CIKOLE  JAWA BARAT 43113;Jawa Barat;Sukabumi;Jl. R. E. Martadinata No.84, Kebonjati, Kec. Cikole, Kota Sukabumi, Jawa Barat 43113;0811-9004-7496;-6.920472798;106.9336246;SBM05-RSB01
118. AGRES ID & FONE;JL. JEND. A. YANI NO. 161 GUNUNGPARANG, KEC. CIKOLE  JAWA BARAT 43113;Jawa Barat;Sukabumi;Jl. A. Yani No.16'1. Gunungparang, Kec. Cikole, Kota Sukabumi, Jawa Barat 43111;0811-8114-2696;-6.922089743;106.9298647;SBM05-RSB02
119. AGRES ID;JL. GEMBONG NO. 20  LANTAI 2 P6  KAPASAN, KEC. SIMOKERTO  JAWA TIMUR 60141;Jawa Timur;Surabaya;Jl. Gembong No.20 - 30, Kapasan, Kec. Simokerto, Surabaya, Jawa Timur 60141;0877-4089-6509;-7.241325231;112.7460266;SBY05-RSI01
120. AGRES ID;JL. GEMBONG NO. 20  LANTAI 2 BLOK H2 NO. 1-3A  KAPASAN, KEC. SIMOKERTO  JAWA TIMUR 60141;Jawa Timur;Surabaya;Jl. Gembong No.20 - 30, Kapasan, Kec. Simokerto, Surabaya, Jawa Timur 60141;0817-0352-2227;-7.241325231;112.7460266;SBY05-RSI02
121. AGRES ID X AMD;JL. AHMAD YANI NO. 73  LANTAI DASAR BLOK D6  MARGOREJO, KEC. WONOCOLO  JAWA TIMUR 60238;Jawa Timur;Surabaya;Jl. Ahmad Yani No.7'3. Margorejo, Kec. Wonocolo, Surabaya, Jawa Timur 60238;0895-3217-3337;-7.315258645;112.7356433;SBY05-RSM01
122. GAMER ID INTEL;JL. AHMAD YANI NO. 73  LOBBY UTAMA PINTU 2 BLOK FB 1  MARGOREJO, KEC. WONOCOLO  JAWA TIMUR 60238;Jawa Timur;Surabaya;Jl. Ahmad Yani No.7'3. Margorejo, Kec. Wonocolo, Surabaya, Jawa Timur 60239;0811-1997-2607;-7.315258645;112.7356433;SBY05-RSM02
123. AGRES ID X INTEL;JL. AHMAD YANI NO. 73  LOBBY UTAMA PINTU 2 BLOK FB 3  MARGOREJO, KEC. WONOCOLO  JAWA TIMUR 60238;Jawa Timur;Surabaya;Jl. Ahmad Yani No.7'3. Margorejo, Kec. Wonocolo, Surabaya, Jawa Timur 60240;0811-1997-2606;-7.315258645;112.7356433;SBY05-RSM03
124. AGRES ID X INTEL;JL. BINTARO UTAMA 3A NO. 81  LANTAI 2 M-16  PONDOK KARYA, KEC. PONDOK AREN  BANTEN 15225;Banten;Tangerang Selatan;Jl. Bintaro Utama 3A No.8'1. Pd. Karya, Kec. Pd. Aren, Kota Tangerang Selatan, Banten 15225;0811-1907-9851;-6.272619173;106.7424505;TNG05-RBJ01
125. AGRES ID X LEGION;JL. PAHLAWAN SERIBU NO. 12  LANTAI 1 BLOK C9 NO. '1.2,7 & 8  LENGKONG WETAN, KEC. SERPONG  BANTEN 15310;Banten;Tangerang Selatan;Jl. Pahlawan Seribu No.12, Lengkong Wetan, Kec. Serpong, Kota Tangerang Selatan, Banten 15310;0811-1998-4673;-6.286115262;106.6649334;TNG05-RBS01
126. AGRES ID X LEGION;JL. PAHLAWAN SERIBU NO. 12  LANTAI 1 BLOK C6 NO. 1 & 8  LENGKONG WETAN, KEC. SERPONG  BANTEN 15310;Banten;Tangerang Selatan;Jl. Pahlawan Seribu No.12, Lengkong Wetan, Kec. Serpong, Kota Tangerang Selatan, Banten 15311;0811-1998-4676;-6.286115262;106.6649334;TNG05-RBS04
127. AGRES ID X LEGION;JL. PAHLAWAN SERIBU NO. 12  LANTAI 1 BLOK D9 NO. 1 & 2  LENGKONG WETAN, KEC. SERPONG  BANTEN 15310;Banten;Tangerang Selatan;Jl. Pahlawan Seribu No.12, Lengkong Wetan, Kec. Serpong, Kota Tangerang Selatan, Banten 15312;0811-1998-4677;-6.286115262;106.6649334;TNG05-RBS05
128. GAMER ID;JL. PAHLAWAN SERIBU NO. 12  LANTAI 1 BLOK D3 NO. 3  LENGKONG WETAN, KEC. SERPONG  BANTEN 15310;Banten;Tangerang Selatan;Jl. Pahlawan Seribu No.12, Lengkong Wetan, Kec. Serpong, Kota Tangerang Selatan, Banten 15313;0811-1998-4678;-6.286115262;106.6649334;TNG05-RBS06
129. GAMER ID;JL. PAHLAWAN SERIBU NO. 12  LANTAI 1 BLOK D10 NO. 5  LENGKONG WETAN, KEC. SERPONG  BANTEN 15310;Banten;Tangerang Selatan;Jl. Pahlawan Seribu No.12, Lengkong Wetan, Kec. Serpong, Kota Tangerang Selatan, Banten 15314;0811-1998-4679;-6.286115262;106.6649334;TNG05-RBS07
130. AGRES ID & FONE;JL. CITRA RAYA BOULEVARD, CIAKAR, KEC. PANONGAN, KABUPATEN TANGERANG, BANTEN 15710;Banten;Tangerang;Jl. Citra Raya Boulevard, Ciakar, Kec. Panongan, Kabupaten Tangerang, Banten 15710;To Be Announced;-6.26064369;106.5250152;TNG05-RCR01
131. AGRES ID X AMD;JL. BOULEVARD DIPENOGORO NO. 105  LANTAI FF BLOK PC NO. 6 & 8  BENCONGAN, KEC. KELAPA DUA  BANTEN 15810;Banten;Tangerang;Jl. Boulevard Diponegoro No.105, Bencongan, Kec. Klp. Dua, Kabupaten Tangerang, Banten 15810;0811-1914-6051;-6.226667541;106.6070233;TNG05-RKI01
132. AGRES ID X ASUS;JL. BOULEVARD DIPENOGORO NO. 105  LANTAI FF BLOK G5 NO. 1 & 6  BENCONGAN, KEC. KELAPA DUA  BANTEN 15810;Banten;Tangerang;Jl. Boulevard Diponegoro No.105, Bencongan, Kec. Klp. Dua, Kabupaten Tangerang, Banten 15811;0811-1923-8069;-6.226667541;106.6070233;TNG05-RKI02
133. AGRES ID;JL. BOULEVARD DIPENOGORO NO. 105  LANTAI FF BLOK A5 NO. 11-12  BENCONGAN, KEC. KELAPA DUA  BANTEN 15810;Banten;Tangerang;Jl. Boulevard Diponegoro No.105, Bencongan, Kec. Klp. Dua, Kabupaten Tangerang, Banten 15812;0811-1914-6053;-6.226667541;106.6070233;TNG05-RKI03
134. AGRES ID X INTEL;JL. BOULEVARD DIPENOGORO NO. 105  LANTAI FF EXH 3A & FF PC 7 & 8  BENCONGAN, KEC. KELAPA DUA  BANTEN 15810;Banten;Tangerang;Jl. Boulevard Diponegoro No.105, Bencongan, Kec. Klp. Dua, Kabupaten Tangerang, Banten 15813;0811-1914-6054;-6.226667541;106.6070233;TNG05-RKI04
135. AGRES ID X INTEL;JL. BOULEVARD DIPENOGORO NO. 105  LANTAI FF EXH 3A & FF PC 7 & 8  BENCONGAN, KEC. KELAPA DUA  BANTEN 15810;Banten;Tangerang;Jl. Boulevard Diponegoro No.105, Bencongan, Kec. Klp. Dua, Kabupaten Tangerang, Banten 15814;0811-1914-6055;-6.226667541;106.6070233;TNG05-RKI05
136. GAMER ID;JL. BOULEVARD DIPENOGORO NO. 105  LANTAI FF BLOK J1 NO. 3-3A  BENCONGAN, KEC. KELAPA DUA  BANTEN 15810;Banten;Tangerang;Jl. Boulevard Diponegoro No.105, Bencongan, Kec. Klp. Dua, Kabupaten Tangerang, Banten 15815;0811-1914-6056;-6.226667541;106.6070233;TNG05-RKI06
137. AGRES ID X CYBER MEDIA COMPUTER;JL. BOULEVARD DIPENOGORO NO. 105  LANTAI FF BLOK H3A NO. 1-2  BENCONGAN, KEC. KELAPA DUA  BANTEN 15810;Banten;Tangerang;Jl. Boulevard Diponegoro No.105, Bencongan, Kec. Klp. Dua, Kabupaten Tangerang, Banten 15816;0811-1914-6057;-6.226667541;106.6070233;TNG05-RKI07
138. AGRES ID X LEXCOMP;JL. BOULEVARD DIPENOGORO NO. 105  LANTAI FF BLOK H3 NO. 1-2  BENCONGAN, KEC. KELAPA DUA  BANTEN 15810;Banten;Tangerang;Jl. Boulevard Diponegoro No.105, Bencongan, Kec. Klp. Dua, Kabupaten Tangerang, Banten 15817;0811-1914-6058;-6.226667541;106.6070233;TNG05-RKI08
139. GAMER ID;JL. BOULEVARD DIPENOGORO NO. 105  LANTAI FF BLOK I3A NO. 1-2  BENCONGAN, KEC. KELAPA DUA  BANTEN 15810;Banten;Tangerang;Jl. Boulevard Diponegoro No.105, Bencongan, Kec. Klp. Dua, Kabupaten Tangerang, Banten 15818;0811-1914-6052;-6.226667541;106.6070233;TNG05-RKI10
140. AGRES ID;JL. BOULEVARD DIPENOGORO NO. 105  LANTAI FF BLOK G7 NO. '1. 2, & 3A  BENCONGAN, KEC. KELAPA DUA  BANTEN 15810;Banten;Tangerang;Jl. Boulevard Diponegoro No.105, Bencongan, Kec. Klp. Dua, Kabupaten Tangerang, Banten 15819;0811-1914-6063;-6.226667541;106.6070233;TNG05-RKI11
141. AGRES ID X ROG STORE PIK;PELATARAN RUKO BEACH BOULEVARD BLOK D NO. 01;DKI Jakarta;Jakarta Utara;Kawasan Pantai Maju, Ruko Beach Boulevard, Golf Island Jl. Pantai Indah Kapuk Blok.D No.'1. Jkt Utara, Daerah Khusus Ibukota Jakarta 14460;0812-3900-3800;-6.094162119;106.7399784;TNG05-RPI02
142. AGRES ID X MSI ARENA;RUKO BEACH BOULEVARD BLOK B NO. 56;DKI Jakarta;Jakarta Utara;Golf Island, Ruko Beach Boulevard, Jl. Pantai Indah Kapuk No.56 Blok B, Daerah Khusus Ibukota Jakarta 14460;0811-1053-8926;-6.092233959;106.7408918;TNG05-RPI03
143. AGRES ID & FONE;JL. KISAMAUN NO. 119 SUKASARI, KEC. TANGERANG  BANTEN 15118;Banten;Tangerang;Jl. Kisamaun No.'119. RT.001/RW.01'1. Sukasari, Kec. Tangerang, Kota Tangerang, Banten 15118;0811-1914-2619;-6.186547583;106.6338385;TNG05-RPL01
144. AGRES ID;JL. JENDRAL SUDIRMAN NO. 19  LANTAI LG BLOK C NO. 07  CIKOKOL, KEC. TANGERANG  BANTEN 15117;Banten;Tangerang;Jl. Jenderal Sudirman No.'1. Cikokol, Kec. Tangerang, Kota Tangerang, Banten 15117;0811-1914-9696;-6.193617818;106.6341109;TNG05-RTC01
145. AGRES ID;JL. JENDRAL SUDIRMAN NO. 19  LANTAI LG BLOK C NO. 52  CIKOKOL, KEC. TANGERANG  BANTEN 15117;Banten;Tangerang;Jl. Jenderal Sudirman No.'1. Cikokol, Kec. Tangerang, Kota Tangerang, Banten 15118;0811-1923-8065;-6.193617818;106.6341109;TNG05-RTC02
146. GAMER ID;JL. JENDRAL SUDIRMAN NO. 19  LANTAI LG BLOK C NO. 10  CIKOKOL, KEC. TANGERANG  BANTEN 15117;Banten;Tangerang;Jl. Jenderal Sudirman No.'1. Cikokol, Kec. Tangerang, Kota Tangerang, Banten 15119;0811-1914-2619;-6.193617818;106.6341109;TNG05-RTC03
147. AGRES ID;JL. JENDRAL SUDIRMAN NO. 19  LANTAI LG BLOK C NO. 56  CIKOKOL, KEC. TANGERANG  BANTEN 15117;Banten;Tangerang;Jl. Jenderal Sudirman No.'1. Cikokol, Kec. Tangerang, Kota Tangerang, Banten 15120;0811-1914-2620;-6.193617818;106.6341109;TNG05-RTC04
148. AGRES ID;JL. JENDRAL SUDIRMAN NO. 19  LANTAI LG BLOK C NO. 19-20  CIKOKOL, KEC. TANGERANG  BANTEN 15117;Banten;Tangerang;Jl. Jenderal Sudirman No.'1. Cikokol, Kec. Tangerang, Kota Tangerang, Banten 15121;0811-1253-4072;-6.193617818;106.6341109;TNG05-RTC05
149. AGRES ID X LEGION;JL. JENDRAL SUDIRMAN NO. 19  LANTAI LG BLOK C NO. 03  CIKOKOL, KEC. TANGERANG  BANTEN 15117;Banten;Tangerang;Jl. Jenderal Sudirman No.'1. Cikokol, Kec. Tangerang, Kota Tangerang, Banten 15122;0811-1908-7532;-6.193617818;106.6341109;TNG05-RTC06
150. GAMER ID LEGION;JL. JENDRAL SUDIRMAN NO. 19  LANTAI LG BLOK C NO. 12  CIKOKOL, KEC. TANGERANG  BANTEN 15117;Banten;Tangerang;Jl. Jenderal Sudirman No.'1. Cikokol, Kec. Tangerang, Kota Tangerang, Banten 15123;0811-1914-2618;-6.193617818;106.6341109;TNG05-RTC07
151. AGRES ID;JL. JENDRAL SUDIRMAN NO. 19  LANTAI LG BLOK D NO. 33 & 35  CIKOKOL, KEC. TANGERANG  BANTEN 15117;Banten;Tangerang;Jl. Jenderal Sudirman No.'1. Cikokol, Kec. Tangerang, Kota Tangerang, Banten 15124;0811-8114-2695;-6.193617818;106.6341109;TNG05-RTC08
152. AGRES ID;JL. LAKSAMANA BINTAN, RUKO PALM REGENCY BLOK A NO. 1   SUNGAI PANAS, KEC. BATAM KOTA  KEP. RIAU 294444;Kepulauan Riau;Batam;Jl. Laksamana Bintan No.'1. Sungai Panas, Kec. Batam Kota, Kota Batam, Kepulauan Riau 29444;0813-7080-2888;1.120914353;104.0336267;1v
153. AGRES ID X LENOVO;JL. MT. HARYONO NO. 992-994  LANTAI 3 STAND VIP 2  LAMPERKIDUL, KEC. SEMARANG SELATAN  JAWA TENGAH 50257;Jawa Tengah;Semarang;Jl. MT. Haryono No.992-994, Lamper Kidul, Kec. Semarang Sel., Kota Semarang, Jawa Tengah 50257;0895-8006-9666;-7.00618021;110.4322022;1w
154. AGRES ID X ASUS;JL. MT. HARYONO NO. 992-994  LANTAI 3 NO. 3  LAMPERKIDUL, KEC. SEMARANG SELATAN  JAWA TENGAH 50257;Jawa Tengah;Semarang;Jl. MT. Haryono No.992-994, Lamper Kidul, Kec. Semarang Sel., Kota Semarang, Jawa Tengah 50258;0895-8006-9666;-7.00618021;110.4322022;RMJ01
155. AGRES ID;JL. MT. HARYONO NO. 992-994  LANTAI 3 STAND VIP 7  LAMPERKIDUL, KEC. SEMARANG SELATAN  JAWA TENGAH 50257;Jawa Tengah;Semarang;Jl. MT. Haryono No.992-994, Lamper Kidul, Kec. Semarang Sel., Kota Semarang, Jawa Tengah 50259;0895-8006-9666;-7.00618021;110.4322022;RMF03
156. AGRES ID;JL. MAJAPAHIT NO 372  PALEBON, KEC. PEDURUNGAN  JAWA TENGAH 50246;Jawa Tengah;Semarang;Jl. Majapahit No.372, Palebon, Kec. Pedurungan, Kota Semarang, Jawa Tengah 50246;0895-8006-9666;-7.007468747;110.4617256;RMF01
157. AGRES ID;JL. BAU MANGGA NO 6D  MASALE, KEC. PANAKKUKANG  SULAWESI SELATAN 90231;Sulawesi Selatan;Makassar;Jl. Bau Mangga No.6 D, Masale, Kec. Panakkukang, Kota Makassar, Sulawesi Selatan 90231;0822-2122-6090;-5.16131347;119.444068;RMF02
158. AGRES ID;JL. GATOT SUBROTO NO. 30  LANTAI 4 CC NO. 99  SEKIP, KEC. MEDAN PETISAH  SUMATERA UTARA 20113;Sumatera Utara;Medan;Plaza Medan Fair, Jl. Gatot Subroto No.30, Sekip, Kec. Medan Petisah, Kota Medan, Sumatera Utara 20113;0822-7313-9505;3.592619508;98.66314553;RMF04
159. AGRES ID;JL. GATOT SUBROTO NO. 30  LANTAI 4 CC NO. 39  SEKIP, KEC. MEDAN PETISAH  SUMATERA UTARA 20113;Sumatera Utara;Medan;Plaza Medan Fair, Jl. Gatot Subroto No.30, Sekip, Kec. Medan Petisah, Kota Medan, Sumatera Utara 20114;0895-0988-5391;3.592619508;98.66314553;RGMO
160. GAMER ID;JL. GATOT SUBROTO NO. 30  LANTAI 4 CC NO. 27  SEKIP, KEC. MEDAN PETISAH  SUMATERA UTARA 20113;Sumatera Utara;Medan;Plaza Medan Fair, Jl. Gatot Subroto No.30, Sekip, Kec. Medan Petisah, Kota Medan, Sumatera Utara 20115;0821-3671-3870;3.592619508;98.66314553;1x
161. GAMER ID;JL. GATOT SUBROTO NO. 30  LANTAI 4 CC NO. 96  SEKIP, KEC. MEDAN PETISAH  SUMATERA UTARA 20113;Sumatera Utara;Medan;Plaza Medan Fair, Jl. Gatot Subroto No.30, Sekip, Kec. Medan Petisah, Kota Medan, Sumatera Utara 20116;0822-7313-9680;3.592619508;98.66314553;AMS
162. AGRES ID;JL. PUTRI MERAK JINGGA NO. 71  KESAWAN, KEC. MEDAN BARAT  SUMATERA UTARA 20231;Sumatera Utara;Medan;Jl. Putri Merak Jingga No.7'1. Kesawan, Kec. Medan Bar., Kota Medan, Sumatera Utara 20111;0822-2082-1751;3.60036974;98.67403114;AJM01
163. GAMER ID;JL. MOJOPAHIT NO 12E  PETISAH TENGAH, KEC. MEDAN PETISAH  SUMATERA UTARA 20111;Sumatera Utara;Medan;Jl. Mojopahit No.12E, Petisah Tengah, Kec. Medan Petisah, Kota Medan, Sumatera Utara 20111;0851-8331-1688;3.589654833;98.66783026;AJM02
164. AGRES ID & FONE;JL. HIJAS NO 14  BENUA MEKAYU DARAT, KEC PONTIANAK SELATAN  KALIMANTAN BARAT 78243;Kalimantan Barat;Pontianak;Jl. Hijas No.14, Benua Melayu Darat, Kec. Pontianak Sel., Kota Pontianak, Kalimantan Barat 78243;0813-8080-7070;-0.035837965;109.3460568;AJM03
165. AGRES ID;JL. C. SIMANJUTAK NO. 101  TERBAN, KEC. GONDOKUSUMAN  YOGYAKARTA 55223;DI Yogyakarta;Yogyakarta;Jl. C. Simanjuntak No.10'1. Terban, Kec. Gondokusuman, Kota Yogyakarta, Daerah Istimewa Yogyakarta 55223;0813-7779-825;-7.777074159;110.3735386;AGRES 2
166. AGRES ID;JL. BRIGJEN KATAMSO  LANTAI 1 NO. 11A  PRAWIRODIRJAN, KEC. GONDOMANAN  YOGYAKARTA 55121;DI Yogyakarta;Yogyakarta;59V9+HRJ Jogjatronik, Jl. Brigjen Katamso, Prawirodirjan, Kec. Gondomanan, Kota Yogyakarta, Daerah Istimewa Yogyakarta 55121;0813-7779-825;-7.805736254;110.3696266;GAMER 1
167. GAMER ID;JL. BRIGJEN KATAMSO  LANTAI 1 NO. 12B  PRAWIRODIRJAN, KEC. GONDOMANAN  YOGYAKARTA 55121;DI Yogyakarta;Yogyakarta;59V9+HRJ Jogjatronik, Jl. Brigjen Katamso, Prawirodirjan, Kec. Gondomanan, Kota Yogyakarta, Daerah Istimewa Yogyakarta 55122;0813-7779-825;-7.805736254;110.3696266;GAMER 2
168. GAMER ID;JL. BRIGJEN KATAMSO  LANTAI 2 NO. 6, 7, & 57  PRAWIRODIRJAN, KEC. GONDOMANAN  YOGYAKARTA 55121;DI Yogyakarta;Yogyakarta;59V9+HRJ Jogjatronik, Jl. Brigjen Katamso, Prawirodirjan, Kec. Gondomanan, Kota Yogyakarta, Daerah Istimewa Yogyakarta 55123;0813-7779-825;-7.805736254;110.3696266;CYBER 1
169. CYBERTECH 1;JL. BRIGJEN KATAMSO  LANTAI 2 NO. 38 & 39  PRAWIRODIRJAN, KEC. GONDOMANAN  YOGYAKARTA 55121;DI Yogyakarta;Yogyakarta;59V9+HRJ Jogjatronik, Jl. Brigjen Katamso, Prawirodirjan, Kec. Gondomanan, Kota Yogyakarta, Daerah Istimewa Yogyakarta 55124;0813-7779-825;-7.805736254;110.3696266;CYBER 2
170. CYBERTECH 2;JL. BRIGJEN KATAMSO  LANTAI 2 NO. 8 & 28  PRAWIRODIRJAN, KEC. GONDOMANAN  YOGYAKARTA 55121;DI Yogyakarta;Yogyakarta;59V9+HRJ Jogjatronik, Jl. Brigjen Katamso, Prawirodirjan, Kec. Gondomanan, Kota Yogyakarta, Daerah Istimewa Yogyakarta 55125;0813-7779-825;-7.805736254;110.3696266;SIMAN
171. AGRES ID;JL. BRIGJEN KATAMSO  MALL LOBY DEPAN  PRAWIRODIRJAN, KEC. GONDOMANAN  YOGYAKARTA 55121;DI Yogyakarta;Yogyakarta;59V9+HRJ Jogjatronik, Jl. Brigjen Katamso, Prawirodirjan, Kec. Gondomanan, Kota Yogyakarta, Daerah Istimewa Yogyakarta 55126;0813-7779-825;-7.805736254;110.3696266;EX BNI
172. AGRES ID;JL. BRIGJEN KATAMSO  LANTAI 2 NO. 2, '3. 4, & 5  PRAWIRODIRJAN, KEC. GONDOMANAN  YOGYAKARTA 55121;DI Yogyakarta;Yogyakarta;59V9+HRJ Jogjatronik, Jl. Brigjen Katamso, Prawirodirjan, Kec. Gondomanan, Kota Yogyakarta, Daerah Istimewa Yogyakarta 55127;0813-7779-825;-7.805736254;110.3696266;AGRES 1
173. AGRES ID;JL. BRIGJEN KATAMSO  LOBBY ATRIUM  PRAWIRODIRJAN, KEC. GONDOMANAN  YOGYAKARTA 55121;DI Yogyakarta;Yogyakarta;59V9+HRJ Jogjatronik, Jl. Brigjen Katamso, Prawirodirjan, Kec. Gondomanan, Kota Yogyakarta, Daerah Istimewa Yogyakarta 55127;To Be Announced;-7.805736254;110.3696266;1y